[
  {
    "name": "KUIPER-00121",
    "noradId": "65950",
    "line1": "1 65950U 25228D   26160.10505746  .00001281  00000+0  19703-3 0  9991",
    "line2": "2 65950  51.9018 308.8509 0000694 102.7252 257.3788 14.79931097 36876"
  },
  {
    "name": "KUIPER-00122",
    "noradId": "65951",
    "line1": "1 65951U 25228E   26160.16175033  .00009113  00000+0  12211-2 0  9998",
    "line2": "2 65951  51.8999 318.5721 0000630 112.7451 247.3578 14.79990250 36748"
  },
  {
    "name": "KUIPER-00123",
    "noradId": "65952",
    "line1": "1 65952U 25228F   26159.18263225 -.00000006  00000+0  28186-4 0  9993",
    "line2": "2 65952  51.8989 322.9190 0000806 102.3378 257.7675 14.79927901 36594"
  },
  {
    "name": "KUIPER-00124",
    "noradId": "65953",
    "line1": "1 65953U 25228G   26160.13614069  .00002724  00000+0  38616-3 0  9993",
    "line2": "2 65953  51.9000 311.1930 0000468 100.3426 259.7589 14.79934200 36842"
  },
  {
    "name": "KUIPER-00125",
    "noradId": "65954",
    "line1": "1 65954U 25228H   26160.08479796  .00001764  00000+0  26034-3 0  9998",
    "line2": "2 65954  51.8969 296.4567 0000933  98.2756 261.8313 14.79929129 37041"
  },
  {
    "name": "KUIPER-00126",
    "noradId": "65955",
    "line1": "1 65955U 25228J   26160.16451358  .00003462  00000+0  48288-3 0  9994",
    "line2": "2 65955  51.9006 316.0944 0000595 102.6263 257.4766 14.79937770 36773"
  },
  {
    "name": "KUIPER-00127",
    "noradId": "65956",
    "line1": "1 65956U 25228K   26159.14276665  .00005536  00000+0  75432-3 0  9992",
    "line2": "2 65956  51.9012 313.0762 0000682 126.1724 233.9301 14.79949253 36735"
  },
  {
    "name": "KUIPER-00128",
    "noradId": "65957",
    "line1": "1 65957U 25228L   26160.13883472 -.00003507  00000+0 -43145-3 0  9998",
    "line2": "2 65957  51.9020 308.7390 0000488 103.3831 256.7186 14.79921143 36870"
  },
  {
    "name": "KUIPER-00129",
    "noradId": "65958",
    "line1": "1 65958U 25228M   26160.11045767  .00001918  00000+0  28056-3 0  9990",
    "line2": "2 65958  51.8998 303.8449 0000903 103.5036 256.6027 14.79921155 36940"
  },
  {
    "name": "KUIPER-00130",
    "noradId": "65959",
    "line1": "1 65959U 25228N   26160.14152912 -.00002492  00000+0 -29801-3 0  9994",
    "line2": "2 65959  51.9037 306.2338 0001641  89.0752 271.0398 14.79923576 27203"
  },
  {
    "name": "KUIPER-00134",
    "noradId": "65960",
    "line1": "1 65960U 25228P   26160.48069734  .00044995  00000+0  10703-2 0  9994",
    "line2": "2 65960  51.8715 234.8137 0003774 291.7557  68.3029 15.41185318 37937"
  },
  {
    "name": "KUIPER-00135",
    "noradId": "65961",
    "line1": "1 65961U 25228Q   26160.10778502  .00002677  00000+0  38002-3 0  9998",
    "line2": "2 65961  51.9031 306.4402 0000699 108.4053 251.6986 14.79937493 36903"
  },
  {
    "name": "KUIPER-00136",
    "noradId": "65962",
    "line1": "1 65962U 25228R   26158.72610238  .00000421  00000+0  84240-4 0  9996",
    "line2": "2 65962  51.9020 310.0096 0000572  98.1643 261.9384 14.79923942 36733"
  },
  {
    "name": "KUIPER-00137",
    "noradId": "65963",
    "line1": "1 65963U 25228S   26160.07941039  .00000255  00000+0  62419-4 0  9993",
    "line2": "2 65963  51.9038 301.5114 0000527 100.6196 259.4826 14.79924739 36975"
  },
  {
    "name": "KUIPER-00138",
    "noradId": "65964",
    "line1": "1 65964U 25228T   26160.11580301  .00009002  00000+0  12066-2 0  9990",
    "line2": "2 65964  51.8983 298.7927 0000717  81.2266 278.8777 14.79990196 37012"
  },
  {
    "name": "KUIPER-00140",
    "noradId": "65965",
    "line1": "1 65965U 25228U   26160.11317208  .00000178  00000+0  52333-4 0  9993",
    "line2": "2 65965  51.9011 301.3934 0000590 103.6903 256.4125 14.79925301 36970"
  },
  {
    "name": "KUIPER-00141",
    "noradId": "65966",
    "line1": "1 65966U 25228V   26159.64587878  .00004546  00000+0  62617-3 0  9990",
    "line2": "2 65966  51.9041 298.5036 0000805  61.0125 299.0918 14.79846509 36971"
  },
  {
    "name": "KUIPER-00146",
    "noradId": "65967",
    "line1": "1 65967U 25228W   26160.08211316 -.00000310  00000+0 -11715-4 0  9993",
    "line2": "2 65967  51.9039 299.0838 0000617 118.6832 241.4193 14.79926744 37001"
  },
  {
    "name": "KUIPER-00149",
    "noradId": "65968",
    "line1": "1 65968U 25228X   26159.64854737  .00001604  00000+0  23941-3 0  9992",
    "line2": "2 65968  51.9011 295.8913 0000651 100.5714 259.5322 14.79933536 37019"
  },
  {
    "name": "KUIPER-00154",
    "noradId": "65969",
    "line1": "1 65969U 25228Y   26160.09019429 -.00000565  00000+0 -45152-4 0  9991",
    "line2": "2 65969  51.9009 291.4338 0000611  98.7056 261.3975 14.79923641 37115"
  },
  {
    "name": "KUIPER-00157",
    "noradId": "65970",
    "line1": "1 65970U 25228Z   26160.08750893  .00000030  00000+0  32923-4 0  9996",
    "line2": "2 65970  51.9036 294.0763 0000594 104.3812 255.7216 14.79926505 37074"
  },
  {
    "name": "KUIPER-00144",
    "noradId": "67133",
    "line1": "1 67133U 25301A   26160.50003471  .00035331  00000+0  46297-2 0  9990",
    "line2": "2 67133  51.9019   9.6309 0001114  64.2690  59.5435 14.80018775  5320"
  },
  {
    "name": "KUIPER-00164",
    "noradId": "67134",
    "line1": "1 67134U 25301B   26160.30500596  .00001674  00000+0  26821-3 0  9994",
    "line2": "2 67134  51.9041  22.0588 0000820 170.9708 189.1267 14.76555668 27455"
  },
  {
    "name": "KUIPER-00175",
    "noradId": "67135",
    "line1": "1 67135U 25301C   26160.26290120  .00003922  00000+0  40475-3 0  9998",
    "line2": "2 67135  51.8964   7.8927 0000853  64.5903 295.5153 14.92203584 27549"
  },
  {
    "name": "KUIPER-00179",
    "noradId": "67136",
    "line1": "1 67136U 25301D   26160.33075990  .00000600  00000+0  10771-3 0  9999",
    "line2": "2 67136  51.9002  20.3604 0000673 108.8799 251.2236 14.79929417 27480"
  },
  {
    "name": "KUIPER-00181",
    "noradId": "67137",
    "line1": "1 67137U 25301E   26160.38481212  .00001130  00000+0  17724-3 0  9997",
    "line2": "2 67137  51.9023  32.6439 0001221 108.5151 251.5944 14.79928002 27292"
  },
  {
    "name": "KUIPER-00183",
    "noradId": "67138",
    "line1": "1 67138U 25301F   26160.30216193  .00004436  00000+0  44953-3 0  9990",
    "line2": "2 67138  51.8966   8.5265 0009412  13.6537 346.4684 14.92649957 27638"
  },
  {
    "name": "KUIPER-00184",
    "noradId": "67139",
    "line1": "1 67139U 25301G   26160.30241367  .00003161  00000+0  44372-3 0  9991",
    "line2": "2 67139  51.9005  15.4847 0000623  76.8771 283.2261 14.79900823 27640"
  },
  {
    "name": "KUIPER-00186",
    "noradId": "67140",
    "line1": "1 67140U 25301H   26160.35104434  .00000785  00000+0  13195-3 0  9999",
    "line2": "2 67140  51.9033  32.8021 0000553 111.8422 248.2599 14.79929752 27136"
  },
  {
    "name": "KUIPER-00187",
    "noradId": "67141",
    "line1": "1 67141U 25301J   26160.34835861  .00002969  00000+0  41835-3 0  9992",
    "line2": "2 67141  51.9044  35.3360 0000693 100.3939 259.7102 14.79932286 27092"
  },
  {
    "name": "KUIPER-00188",
    "noradId": "67142",
    "line1": "1 67142U 25301K   26159.87701903  .00003427  00000+0  47858-3 0  9999",
    "line2": "2 67142  51.9040   5.0094 0000588 117.5425 242.5597 14.79912150 27478"
  },
  {
    "name": "KUIPER-00191",
    "noradId": "67143",
    "line1": "1 67143U 25301L   26160.32268755  .00000689  00000+0  11932-3 0  9996",
    "line2": "2 67143  51.9033  27.9449 0001662  93.4387 266.6766 14.79952649 27226"
  },
  {
    "name": "KUIPER-00196",
    "noradId": "67144",
    "line1": "1 67144U 25301M   26160.50003471  .00016104  00000+0  13960-2 0  9990",
    "line2": "2 67144  51.8964 343.6559 0004435 329.6569 159.6906 14.97204484  5620"
  },
  {
    "name": "KUIPER-00204",
    "noradId": "67145",
    "line1": "1 67145U 25301N   26160.50003471  .00009946  00000+0  13113-2 0  9997",
    "line2": "2 67145  51.9020 359.6452 0000480  60.9469 185.3534 14.80585209  5479"
  },
  {
    "name": "KUIPER-00210",
    "noradId": "67146",
    "line1": "1 67146U 25301P   26160.35643361  .00001634  00000+0  24334-3 0  9993",
    "line2": "2 67146  51.9005  27.7529 0000553  99.4749 260.6276 14.79930696 27375"
  },
  {
    "name": "KUIPER-00221",
    "noradId": "67147",
    "line1": "1 67147U 25301Q   26160.38211781  .00002661  00000+0  37789-3 0  9993",
    "line2": "2 67147  51.9023  35.1573 0000652  99.4483 260.6553 14.79932435 27105"
  },
  {
    "name": "KUIPER-00232",
    "noradId": "67148",
    "line1": "1 67148U 25301R   26160.29700346  .00003038  00000+0  42730-3 0  9995",
    "line2": "2 67148  51.9003  20.5649 0000934 109.3656 250.7407 14.79930905 27290"
  },
  {
    "name": "KUIPER-00241",
    "noradId": "67149",
    "line1": "1 67149U 25301S   26159.91479496  .00000893  00000+0  14622-3 0  9997",
    "line2": "2 67149  51.9033  32.2394 0000851 105.1528 254.9529 14.79925989 27434"
  },
  {
    "name": "KUIPER-00245",
    "noradId": "67150",
    "line1": "1 67150U 25301T   26160.37941661  .00000696  00000+0  12029-3 0  9999",
    "line2": "2 67150  51.9034  37.6992 0000709 101.0970 259.0072 14.79928295 27069"
  },
  {
    "name": "KUIPER-00246",
    "noradId": "67151",
    "line1": "1 67151U 25301U   26159.34888934  .00001374  00000+0  20915-3 0  9995",
    "line2": "2 67151  51.9027  27.2167 0000724  96.0595 264.0450 14.79932817 27144"
  },
  {
    "name": "KUIPER-00247",
    "noradId": "67152",
    "line1": "1 67152U 25301V   26160.30508149  .00003066  00000+0  43106-3 0  9998",
    "line2": "2 67152  51.8979  12.9743 0000810 102.6999 257.4054 14.79928821 27404"
  },
  {
    "name": "KUIPER-00248",
    "noradId": "67153",
    "line1": "1 67153U 25301W   26159.80346904  .00002643  00000+0  40538-3 0  9997",
    "line2": "2 67153  51.8989 357.3219 0001696  43.7334 316.3761 14.76616309 27740"
  },
  {
    "name": "KUIPER-00249",
    "noradId": "67154",
    "line1": "1 67154U 25301X   26160.30778412  .00003291  00000+0  46053-3 0  9996",
    "line2": "2 67154  51.9022  10.5100 0000631 103.9271 256.1761 14.79930975 27432"
  }
]